[
  {
    "COMMENT": "GENERATED VIA SPACETRACK.ORG API",
    "ORIGINATOR": "18 SPCS",
    "NORAD_CAT_ID": "46984",
    "OBJECT_NAME": "S6 MICHAEL FREILICH",
    "OBJECT_TYPE": "PAYLOAD",
    "CLASSIFICATION_TYPE": "U",
    "INTLDES": "20086A",
    "EPOCH": "2023-08-25 20:31:46",
    "EPOCH_MICROSECONDS": "139232",
    "MEAN_MOTION": "12.80929234",
    "ECCENTRICITY": "0.0007869",
    "INCLINATION": "66.0406",
    "RA_OF_ASC_NODE": "106.7563",
    "ARG_OF_PERICENTER": "268.5016",
    "MEAN_ANOMALY": "91.5098",
    "EPHEMERIS_TYPE": "0",
    "ELEMENT_SET_NO": "999",
    "REV_AT_EPOCH": "12887",
    "BSTAR": "-0.0000064455",
    "MEAN_MOTION_DOT": "-0.00000063",
    "MEAN_MOTION_DDOT": "0",
    "FILE": "3989051",
    "TLE_LINE0": "0 S6 MICHAEL FREILICH",
    "TLE_LINE1": "1 46984U 20086A   23237.85539513 -.00000063  00000-0 -64455-5 0  9993",
    "TLE_LINE2": "2 46984  66.0406 106.7563 0007869 268.5016  91.5098 12.80929234128879",
    "OBJECT_ID": "2020-086A",
    "OBJECT_NUMBER": "46984",
    "SEMIMAJOR_AXIS": "7715.873",
    "PERIOD": "112.418",
    "APOGEE": "1343.810",
    "PERIGEE": "1331.667",
    "DECAYED": "0"
  },
  {
    "COMMENT": "GENERATED VIA SPACETRACK.ORG API",
    "ORIGINATOR": "18 SPCS",
    "NORAD_CAT_ID": "46984",
    "OBJECT_NAME": "S6 MICHAEL FREILICH",
    "OBJECT_TYPE": "PAYLOAD",
    "CLASSIFICATION_TYPE": "U",
    "INTLDES": "20086A",
    "EPOCH": "2023-08-26 02:09:03",
    "EPOCH_MICROSECONDS": "437568",
    "MEAN_MOTION": "12.80929221",
    "ECCENTRICITY": "0.0007865",
    "INCLINATION": "66.0406",
    "RA_OF_ASC_NODE": "106.2698",
    "ARG_OF_PERICENTER": "268.5055",
    "MEAN_ANOMALY": "91.5059",
    "EPHEMERIS_TYPE": "0",
    "ELEMENT_SET_NO": "999",
    "REV_AT_EPOCH": "12903",
    "BSTAR": "-0.000006904",
    "MEAN_MOTION_DOT": "-0.00000063",
    "MEAN_MOTION_DDOT": "0",
    "FILE": "3989556",
    "TLE_LINE0": "0 S6 MICHAEL FREILICH",
    "TLE_LINE1": "1 46984U 20086A   23238.08962312 -.00000063  00000-0 -69040-5 0  9991",
    "TLE_LINE2": "2 46984  66.0406 106.2698 0007865 268.5055  91.5059 12.80929221129034",
    "OBJECT_ID": "2020-086A",
    "OBJECT_NUMBER": "46984",
    "SEMIMAJOR_AXIS": "7715.873",
    "PERIOD": "112.418",
    "APOGEE": "1343.807",
    "PERIGEE": "1331.670",
    "DECAYED": "0"
  },
  {
    "COMMENT": "GENERATED VIA SPACETRACK.ORG API",
    "ORIGINATOR": "18 SPCS",
    "NORAD_CAT_ID": "46984",
    "OBJECT_NAME": "S6 MICHAEL FREILICH",
    "OBJECT_TYPE": "PAYLOAD",
    "CLASSIFICATION_TYPE": "U",
    "INTLDES": "20086A",
    "EPOCH": "2023-08-26 13:23:38",
    "EPOCH_MICROSECONDS": "27328",
    "MEAN_MOTION": "12.80929226",
    "ECCENTRICITY": "0.0007864",
    "INCLINATION": "66.0405",
    "RA_OF_ASC_NODE": "105.2968",
    "ARG_OF_PERICENTER": "268.4958",
    "MEAN_ANOMALY": "91.5157",
    "EPHEMERIS_TYPE": "0",
    "ELEMENT_SET_NO": "999",
    "REV_AT_EPOCH": "12896",
    "BSTAR": "0.0000065574",
    "MEAN_MOTION_DOT": "-0.0000006",
    "MEAN_MOTION_DDOT": "0",
    "FILE": "3989608",
    "TLE_LINE0": "0 S6 MICHAEL FREILICH",
    "TLE_LINE1": "1 46984U 20086A   23238.55807902 -.00000060  00000-0  65574-5 0  9990",
    "TLE_LINE2": "2 46984  66.0405 105.2968 0007864 268.4958  91.5157 12.80929226128967",
    "OBJECT_ID": "2020-086A",
    "OBJECT_NUMBER": "46984",
    "SEMIMAJOR_AXIS": "7715.873",
    "PERIOD": "112.418",
    "APOGEE": "1343.806",
    "PERIGEE": "1331.670",
    "DECAYED": "0"
  },
  {
    "COMMENT": "GENERATED VIA SPACETRACK.ORG API",
    "ORIGINATOR": "18 SPCS",
    "NORAD_CAT_ID": "46984",
    "OBJECT_NAME": "S6 MICHAEL FREILICH",
    "OBJECT_TYPE": "PAYLOAD",
    "CLASSIFICATION_TYPE": "U",
    "INTLDES": "20086A",
    "EPOCH": "2023-08-26 20:53:21",
    "EPOCH_MICROSECONDS": "84288",
    "MEAN_MOTION": "12.80929201",
    "ECCENTRICITY": "0.000787",
    "INCLINATION": "66.0405",
    "RA_OF_ASC_NODE": "104.6479",
    "ARG_OF_PERICENTER": "268.4359",
    "MEAN_ANOMALY": "91.5755",
    "EPHEMERIS_TYPE": "0",
    "ELEMENT_SET_NO": "999",
    "REV_AT_EPOCH": "12900",
    "BSTAR": "0.0000075158",
    "MEAN_MOTION_DOT": "-0.00000059",
    "MEAN_MOTION_DDOT": "0",
    "FILE": "3989878",
    "TLE_LINE0": "0 S6 MICHAEL FREILICH",
    "TLE_LINE1": "1 46984U 20086A   23238.87038292 -.00000059  00000-0  75158-5 0  9990",
    "TLE_LINE2": "2 46984  66.0405 104.6479 0007870 268.4359  91.5755 12.80929201129002",
    "OBJECT_ID": "2020-086A",
    "OBJECT_NUMBER": "46984",
    "SEMIMAJOR_AXIS": "7715.873",
    "PERIOD": "112.418",
    "APOGEE": "1343.811",
    "PERIGEE": "1331.666",
    "DECAYED": "0"
  },
  {
    "COMMENT": "GENERATED VIA SPACETRACK.ORG API",
    "ORIGINATOR": "18 SPCS",
    "NORAD_CAT_ID": "46984",
    "OBJECT_NAME": "S6 MICHAEL FREILICH",
    "OBJECT_TYPE": "PAYLOAD",
    "CLASSIFICATION_TYPE": "U",
    "INTLDES": "20086A",
    "EPOCH": "2023-08-27 00:38:12",
    "EPOCH_MICROSECONDS": "614496",
    "MEAN_MOTION": "12.80929218",
    "ECCENTRICITY": "0.0007867",
    "INCLINATION": "66.0404",
    "RA_OF_ASC_NODE": "104.3236",
    "ARG_OF_PERICENTER": "268.4336",
    "MEAN_ANOMALY": "91.5778",
    "EPHEMERIS_TYPE": "0",
    "ELEMENT_SET_NO": "999",
    "REV_AT_EPOCH": "12902",
    "BSTAR": "0.000025212",
    "MEAN_MOTION_DOT": "-0.00000055",
    "MEAN_MOTION_DDOT": "0",
    "FILE": "3990390",
    "TLE_LINE0": "0 S6 MICHAEL FREILICH",
    "TLE_LINE1": "1 46984U 20086A   23239.02653489 -.00000055  00000-0  25212-4 0  9990",
    "TLE_LINE2": "2 46984  66.0404 104.3236 0007867 268.4336  91.5778 12.80929218129025",
    "OBJECT_ID": "2020-086A",
    "OBJECT_NUMBER": "46984",
    "SEMIMAJOR_AXIS": "7715.873",
    "PERIOD": "112.418",
    "APOGEE": "1343.808",
    "PERIGEE": "1331.668",
    "DECAYED": "0"
  },
  {
    "COMMENT": "GENERATED VIA SPACETRACK.ORG API",
    "ORIGINATOR": "18 SPCS",
    "NORAD_CAT_ID": "46984",
    "OBJECT_NAME": "S6 MICHAEL FREILICH",
    "OBJECT_TYPE": "PAYLOAD",
    "CLASSIFICATION_TYPE": "U",
    "INTLDES": "20086A",
    "EPOCH": "2023-08-27 17:30:04",
    "EPOCH_MICROSECONDS": "491360",
    "MEAN_MOTION": "12.80929272",
    "ECCENTRICITY": "0.0007871",
    "INCLINATION": "66.0403",
    "RA_OF_ASC_NODE": "102.8639",
    "ARG_OF_PERICENTER": "268.4398",
    "MEAN_ANOMALY": "91.5715",
    "EPHEMERIS_TYPE": "0",
    "ELEMENT_SET_NO": "999",
    "REV_AT_EPOCH": "12924",
    "BSTAR": "0.000062816",
    "MEAN_MOTION_DOT": "-0.00000047",
    "MEAN_MOTION_DDOT": "0",
    "FILE": "3990631",
    "TLE_LINE0": "0 S6 MICHAEL FREILICH",
    "TLE_LINE1": "1 46984U 20086A   23239.72921865 -.00000047  00000-0  62816-4 0  9995",
    "TLE_LINE2": "2 46984  66.0403 102.8639 0007871 268.4398  91.5715 12.80929272129242",
    "OBJECT_ID": "2020-086A",
    "OBJECT_NUMBER": "46984",
    "SEMIMAJOR_AXIS": "7715.873",
    "PERIOD": "112.418",
    "APOGEE": "1343.811",
    "PERIGEE": "1331.665",
    "DECAYED": "0"
  },
  {
    "COMMENT": "GENERATED VIA SPACETRACK.ORG API",
    "ORIGINATOR": "18 SPCS",
    "NORAD_CAT_ID": "46984",
    "OBJECT_NAME": "S6 MICHAEL FREILICH",
    "OBJECT_TYPE": "PAYLOAD",
    "CLASSIFICATION_TYPE": "U",
    "INTLDES": "20086A",
    "EPOCH": "2023-08-27 21:14:56",
    "EPOCH_MICROSECONDS": "21568",
    "MEAN_MOTION": "12.80929272",
    "ECCENTRICITY": "0.0007871",
    "INCLINATION": "66.0403",
    "RA_OF_ASC_NODE": "102.5396",
    "ARG_OF_PERICENTER": "268.436",
    "MEAN_ANOMALY": "91.5754",
    "EPHEMERIS_TYPE": "0",
    "ELEMENT_SET_NO": "999",
    "REV_AT_EPOCH": "12913",
    "BSTAR": "0.000076811",
    "MEAN_MOTION_DOT": "-0.00000043",
    "MEAN_MOTION_DDOT": "0",
    "FILE": "3990698",
    "TLE_LINE0": "0 S6 MICHAEL FREILICH",
    "TLE_LINE1": "1 46984U 20086A   23239.88537062 -.00000043  00000-0  76811-4 0  9990",
    "TLE_LINE2": "2 46984  66.0403 102.5396 0007871 268.4360  91.5754 12.80929272129139",
    "OBJECT_ID": "2020-086A",
    "OBJECT_NUMBER": "46984",
    "SEMIMAJOR_AXIS": "7715.873",
    "PERIOD": "112.418",
    "APOGEE": "1343.811",
    "PERIGEE": "1331.665",
    "DECAYED": "0"
  },
  {
    "COMMENT": "GENERATED VIA SPACETRACK.ORG API",
    "ORIGINATOR": "18 SPCS",
    "NORAD_CAT_ID": "46984",
    "OBJECT_NAME": "S6 MICHAEL FREILICH",
    "OBJECT_TYPE": "PAYLOAD",
    "CLASSIFICATION_TYPE": "U",
    "INTLDES": "20086A",
    "EPOCH": "2023-08-28 21:36:30",
    "EPOCH_MICROSECONDS": "962304",
    "MEAN_MOTION": "12.80929311",
    "ECCENTRICITY": "0.0007864",
    "INCLINATION": "66.0403",
    "RA_OF_ASC_NODE": "100.4313",
    "ARG_OF_PERICENTER": "268.5173",
    "MEAN_ANOMALY": "91.4941",
    "EPHEMERIS_TYPE": "0",
    "ELEMENT_SET_NO": "999",
    "REV_AT_EPOCH": "12926",
    "BSTAR": "0.00010066",
    "MEAN_MOTION_DOT": "-0.00000038",
    "MEAN_MOTION_DDOT": "0",
    "FILE": "3991628",
    "TLE_LINE0": "0 S6 MICHAEL FREILICH",
    "TLE_LINE1": "1 46984U 20086A   23240.90035836 -.00000038  00000-0  10066-3 0  9990",
    "TLE_LINE2": "2 46984  66.0403 100.4313 0007864 268.5173  91.4941 12.80929311129265",
    "OBJECT_ID": "2020-086A",
    "OBJECT_NUMBER": "46984",
    "SEMIMAJOR_AXIS": "7715.873",
    "PERIOD": "112.418",
    "APOGEE": "1343.806",
    "PERIGEE": "1331.670",
    "DECAYED": "0"
  }
]